[
    {
        "Altitude(m)": 604234.6205569559,
        "Argument of Periapsis(deg)": 0.0,
        "Eccentricity": 0.0,
        "Inclination(deg)": 60.0,
        "Latitude(deg)": 14.117300359469933,
        "Longitude(deg)": 51.72731088375382,
        "Mean Anomaly(deg)": -196.36359999999996,
        "RAAN(deg)": 340.00000000000006,
        "Satellite Name": "Test1 1506",
        "Satellite Number": 1506,
        "Semi-Major Axis(m)": 6980739.136638005,
        "Time(s)": 0
    },
    {
        "Altitude(m)": 604223.448785861,
        "Argument of Periapsis(deg)": 0.00010418945913296404,
        "Eccentricity": 0.0,
        "Inclination(deg)": 60.0,
        "Latitude(deg)": 13.582437062072417,
        "Longitude(deg)": 52.01422078496529,
        "Mean Anomaly(deg)": -195.74349385453812,
        "RAAN(deg)": 339.99957995086027,
        "Satellite Name": "Test1 1506",
        "Satellite Number": 1506,
        "Semi-Major Axis(m)": 6980739.136638005,
        "Time(s)": 10
    },
    {
        "Altitude(m)": 604215.2322691778,
        "Argument of Periapsis(deg)": 0.0002083789182659281,
        "Eccentricity": 0.0,
        "Inclination(deg)": 60.0,
        "Latitude(deg)": 13.047125623909805,
        "Longitude(deg)": 52.299660165525026,
        "Mean Anomaly(deg)": -195.12338770907627,
        "RAAN(deg)": 339.99915990172053,
        "Satellite Name": "Test1 1506",
        "Satellite Number": 1506,
        "Semi-Major Axis(m)": 6980739.136638005,
        "Time(s)": 20
    },
    {
        "Altitude(m)": 604209.9988991112,
        "Argument of Periapsis(deg)": 0.00031256837739889213,
        "Eccentricity": 0.0,
        "Inclination(deg)": 60.0,
        "Latitude(deg)": 12.511386433741132,
        "Longitude(deg)": 52.58369373898345,
        "Mean Anomaly(deg)": -194.50328156361448,
        "RAAN(deg)": 339.9987398525808,
        "Satellite Name": "Test1 1506",
        "Satellite Number": 1506,
        "Semi-Major Axis(m)": 6980739.136638005,
        "Time(s)": 30
    },
    {
        "Altitude(m)": 604207.7752238323,
        "Argument of Periapsis(deg)": 0.0004167578365318562,
        "Eccentricity": 0.0,
        "Inclination(deg)": 60.0,
        "Latitude(deg)": 11.975239604367259,
        "Longitude(deg)": 52.86638587350896,
        "Mean Anomaly(deg)": -193.88317541815263,
        "RAAN(deg)": 339.99831980344106,
        "Satellite Name": "Test1 1506",
        "Satellite Number": 1506,
        "Semi-Major Axis(m)": 6980739.136638005,
        "Time(s)": 40
    },
    {
        "Altitude(m)": 604208.586431676,
        "Argument of Periapsis(deg)": 0.0005209472956648203,
        "Eccentricity": 0.0,
        "Inclination(deg)": 60.0,
        "Latitude(deg)": 11.438704986577465,
        "Longitude(deg)": 53.14779962360439,
        "Mean Anomaly(deg)": -193.26306927269079,
        "RAAN(deg)": 339.99789975430133,
        "Satellite Name": "Test1 1506",
        "Satellite Number": 1506,
        "Semi-Major Axis(m)": 6980739.136638005,
        "Time(s)": 50
    },
    {
        "Altitude(m)": 604212.4563360293,
        "Argument of Periapsis(deg)": 0.0006251367547977843,
        "Eccentricity": 0.0,
        "Inclination(deg)": 60.0,
        "Latitude(deg)": 10.9018021827408,
        "Longitude(deg)": 53.42799727400861,
        "Mean Anomaly(deg)": -192.64296312722902,
        "RAAN(deg)": 339.99747970516154,
        "Satellite Name": "Test1 1506",
        "Satellite Number": 1506,
        "Semi-Major Axis(m)": 6980739.136638005,
        "Time(s)": 60
    },
    {
        "Altitude(m)": 604219.4073608358,
        "Argument of Periapsis(deg)": 0.0007293262139307483,
        "Eccentricity": 0.0,
        "Inclination(deg)": 60.0,
        "Latitude(deg)": 10.36455056005968,
        "Longitude(deg)": 53.70704088294057,
        "Mean Anomaly(deg)": -192.02285698176712,
        "RAAN(deg)": 339.99705965602186,
        "Satellite Name": "Test1 1506",
        "Satellite Number": 1506,
        "Semi-Major Axis(m)": 6980739.136638005,
        "Time(s)": 70
    },
    {
        "Altitude(m)": 604229.460526813,
        "Argument of Periapsis(deg)": 0.0008335156730637124,
        "Eccentricity": 0.0,
        "Inclination(deg)": 60.0,
        "Latitude(deg)": 9.82696926350336,
        "Longitude(deg)": 53.984991311839195,
        "Mean Anomaly(deg)": -191.40275083630536,
        "RAAN(deg)": 339.9966396068821,
        "Satellite Name": "Test1 1506",
        "Satellite Number": 1506,
        "Semi-Major Axis(m)": 6980739.136638005,
        "Time(s)": 80
    },
    {
        "Altitude(m)": 604242.6354383406,
        "Argument of Periapsis(deg)": 0.0009377051321966765,
        "Eccentricity": 0.0,
        "Inclination(deg)": 60.0,
        "Latitude(deg)": 9.289077228440632,
        "Longitude(deg)": 54.26190876737846,
        "Mean Anomaly(deg)": -190.7826446908435,
        "RAAN(deg)": 339.99621955774234,
        "Satellite Name": "Test1 1506",
        "Satellite Number": 1506,
        "Semi-Major Axis(m)": 6980739.136638005,
        "Time(s)": 90
    },
    {
        "Altitude(m)": 604258.9502710099,
        "Argument of Periapsis(deg)": 0.0010418945913296407,
        "Eccentricity": 0.0,
        "Inclination(deg)": 60.0,
        "Latitude(deg)": 8.750893192990459,
        "Longitude(deg)": 54.53785334291173,
        "Mean Anomaly(deg)": -190.16253854538166,
        "RAAN(deg)": 339.99579950860254,
        "Satellite Name": "Test1 1506",
        "Satellite Number": 1506,
        "Semi-Major Axis(m)": 6980739.136638005,
        "Time(s)": 100
    },
    {
        "Altitude(m)": 604278.4217599041,
        "Argument of Periapsis(deg)": 0.0011460840504626045,
        "Eccentricity": 0.0,
        "Inclination(deg)": 60.0,
        "Latitude(deg)": 8.212435710103765,
        "Longitude(deg)": 54.8128840465018,
        "Mean Anomaly(deg)": -189.54243239991987,
        "RAAN(deg)": 339.99537945946287,
        "Satellite Name": "Test1 1506",
        "Satellite Number": 1506,
        "Semi-Major Axis(m)": 6980739.136638005,
        "Time(s)": 110
    },
    {
        "Altitude(m)": 604301.0651885583,
        "Argument of Periapsis(deg)": 0.0012502735095955685,
        "Eccentricity": 0.0,
        "Inclination(deg)": 60.0,
        "Latitude(deg)": 7.673723159397082,
        "Longitude(deg)": 55.08705934131475,
        "Mean Anomaly(deg)": -188.922326254458,
        "RAAN(deg)": 339.9949594103231,
        "Satellite Name": "Test1 1506",
        "Satellite Number": 1506,
        "Semi-Major Axis(m)": 6980739.136638005,
        "Time(s)": 120
    },
    {
        "Altitude(m)": 604326.8943786277,
        "Argument of Periapsis(deg)": 0.0013544629687285324,
        "Eccentricity": 0.0,
        "Inclination(deg)": 60.0,
        "Latitude(deg)": 7.134773758753921,
        "Longitude(deg)": 55.360437685532006,
        "Mean Anomaly(deg)": -188.30222010899627,
        "RAAN(deg)": 339.99453936118334,
        "Satellite Name": "Test1 1506",
        "Satellite Number": 1506,
        "Semi-Major Axis(m)": 6980739.136638005,
        "Time(s)": 130
    },
    {
        "Altitude(m)": 604355.9216802797,
        "Argument of Periapsis(deg)": 0.0014586524278614966,
        "Eccentricity": 0.0,
        "Inclination(deg)": 60.0,
        "Latitude(deg)": 6.595605575705936,
        "Longitude(deg)": 55.63307655893838,
        "Mean Anomaly(deg)": -187.68211396353442,
        "RAAN(deg)": 339.9941193120436,
        "Satellite Name": "Test1 1506",
        "Satellite Number": 1506,
        "Semi-Major Axis(m)": 6980739.136638005,
        "Time(s)": 140
    },
    {
        "Altitude(m)": 604388.1579632915,
        "Argument of Periapsis(deg)": 0.0015628418869944607,
        "Eccentricity": 0.0,
        "Inclination(deg)": 60.0,
        "Latitude(deg)": 6.056236538615408,
        "Longitude(deg)": 55.90503300196134,
        "Mean Anomaly(deg)": -187.0620078180725,
        "RAAN(deg)": 339.9936992629039,
        "Satellite Name": "Test1 1506",
        "Satellite Number": 1506,
        "Semi-Major Axis(m)": 6980739.136638005,
        "Time(s)": 150
    },
    {
        "Altitude(m)": 604423.61260889,
        "Argument of Periapsis(deg)": 0.0016670313461274247,
        "Eccentricity": 0.0,
        "Inclination(deg)": 60.0,
        "Latitude(deg)": 5.516684447671126,
        "Longitude(deg)": 56.17636415431853,
        "Mean Anomaly(deg)": -186.44190167261073,
        "RAAN(deg)": 339.99327921376414,
        "Satellite Name": "Test1 1506",
        "Satellite Number": 1506,
        "Semi-Major Axis(m)": 6980739.136638005,
        "Time(s)": 160
    },
    {
        "Altitude(m)": 604462.2935022921,
        "Argument of Periapsis(deg)": 0.0017712208052603888,
        "Eccentricity": 0.0,
        "Inclination(deg)": 60.0,
        "Latitude(deg)": 4.976966985710443,
        "Longitude(deg)": 56.447126280430055,
        "Mean Anomaly(deg)": -185.82179552714888,
        "RAAN(deg)": 339.9928591646244,
        "Satellite Name": "Test1 1506",
        "Satellite Number": 1506,
        "Semi-Major Axis(m)": 6980739.136638005,
        "Time(s)": 170
    },
    {
        "Altitude(m)": 604504.2070260248,
        "Argument of Periapsis(deg)": 0.001875410264393353,
        "Eccentricity": 0.0,
        "Inclination(deg)": 60.0,
        "Latitude(deg)": 4.437101728888492,
        "Longitude(deg)": 56.71737530736984,
        "Mean Anomaly(deg)": -185.20168938168703,
        "RAAN(deg)": 339.9924391154846,
        "Satellite Name": "Test1 1506",
        "Satellite Number": 1506,
        "Semi-Major Axis(m)": 6980739.136638005,
        "Time(s)": 180
    },
    {
        "Altitude(m)": 604549.3580539146,
        "Argument of Periapsis(deg)": 0.0019795997235263173,
        "Eccentricity": 0.0,
        "Inclination(deg)": 60.0,
        "Latitude(deg)": 3.8971061572042403,
        "Longitude(deg)": 56.98716736251466,
        "Mean Anomaly(deg)": -184.58158323622524,
        "RAAN(deg)": 339.99201906634494,
        "Satellite Name": "Test1 1506",
        "Satellite Number": 1506,
        "Semi-Major Axis(m)": 6980739.136638005,
        "Time(s)": 190
    }
]